{
  "type": "FeatureCollection",
  "features": [
    {
      "type": "Feature",
      "properties": {
        "norad_id": 36459,
        "name": "COSMOS 2251 DEB",
        "group": "cosmos-2251-debris",
        "lat": -14.461099361383425,
        "lon": 13.781067171320721,
        "alt_km": 862.2626365443375,
        "timestamp": "2025-12-02T15:49:07.591726+00:00",
        "meta_object_name": "COSMOS 2251 DEB",
        "meta_object_id": "1993-036BBJ",
        "meta_epoch": "2025-11-27T21:25:14.011392",
        "meta_mean_motion": 14.2626117,
        "meta_eccentricity": 0.0114133,
        "meta_inclination": 74.0487,
        "meta_ra_of_asc_node": 26.6161,
        "meta_arg_of_pericenter": 126.4072,
        "meta_mean_anomaly": 234.7668,
        "meta_ephemeris_type": 0,
        "meta_classification_type": "U",
        "meta_norad_cat_id": 36459,
        "meta_element_set_no": 999,
        "meta_rev_at_epoch": 7670,
        "meta_bstar": 0.0017749,
        "meta_mean_motion_dot": 4.537e-05,
        "meta_mean_motion_ddot": 0,
        "tle_line1": "1 36459U 93036BBJ 25331.89252328  .00004537  00000+0  17749-2 0  9999",
        "tle_line2": "2 36459  74.0487  26.6161 0114133 126.4072 234.7668 14.26261170 76702"
      },
      "geometry": {
        "type": "Point",
        "coordinates": [
          13.781067171320721,
          -14.461099361383425
        ]
      }
    },
    {
      "type": "Feature",
      "properties": {
        "norad_id": 36470,
        "name": "COSMOS 2251 DEB",
        "group": "cosmos-2251-debris",
        "lat": 1.3223796623212039,
        "lon": -84.27450626245326,
        "alt_km": 554.9889008826431,
        "timestamp": "2025-12-02T15:49:07.591736+00:00",
        "meta_object_name": "COSMOS 2251 DEB",
        "meta_object_id": "1993-036BBV",
        "meta_epoch": "2025-12-02T03:03:18.136800",
        "meta_mean_motion": 15.05586615,
        "meta_eccentricity": 0.00218493,
        "meta_inclination": 73.8455,
        "meta_ra_of_asc_node": 276.4446,
        "meta_arg_of_pericenter": 104.1241,
        "meta_mean_anomaly": 256.2378,
        "meta_ephemeris_type": 0,
        "meta_classification_type": "U",
        "meta_norad_cat_id": 36470,
        "meta_element_set_no": 999,
        "meta_rev_at_epoch": 65934,
        "meta_bstar": 0.0040110233,
        "meta_mean_motion_dot": 0.00058582,
        "meta_mean_motion_ddot": 0,
        "tle_line1": "1 36470U 93036BBV 25336.12729325  .00058582  00000+0  40110-2 0  9996",
        "tle_line2": "2 36470  73.8455 276.4446 0021849 104.1241 256.2378 15.05586615659346"
      },
      "geometry": {
        "type": "Point",
        "coordinates": [
          -84.27450626245326,
          1.3223796623212039
        ]
      }
    },
    {
      "type": "Feature",
      "properties": {
        "norad_id": 36528,
        "name": "COSMOS 2251 DEB",
        "group": "cosmos-2251-debris",
        "lat": -50.53886489846782,
        "lon": 143.2153798533521,
        "alt_km": 797.3721547333844,
        "timestamp": "2025-12-02T15:49:07.591746+00:00",
        "meta_object_name": "COSMOS 2251 DEB",
        "meta_object_id": "1993-036BCN",
        "meta_epoch": "2025-11-28T19:45:32.756256",
        "meta_mean_motion": 14.30521775,
        "meta_eccentricity": 0.00858193,
        "meta_inclination": 74.0168,
        "meta_ra_of_asc_node": 170.5765,
        "meta_arg_of_pericenter": 223.2164,
        "meta_mean_anomaly": 136.2231,
        "meta_ephemeris_type": 0,
        "meta_classification_type": "U",
        "meta_norad_cat_id": 36528,
        "meta_element_set_no": 999,
        "meta_rev_at_epoch": 64228,
        "meta_bstar": 0.00075224171,
        "meta_mean_motion_dot": 2.015e-05,
        "meta_mean_motion_ddot": 0,
        "tle_line1": "1 36528U 93036BCN 25332.82329579  .00002015  00000+0  75224-3 0  9995",
        "tle_line2": "2 36528  74.0168 170.5765 0085819 223.2164 136.2231 14.30521775642289"
      },
      "geometry": {
        "type": "Point",
        "coordinates": [
          143.2153798533521,
          -50.53886489846782
        ]
      }
    },
    {
      "type": "Feature",
      "properties": {
        "norad_id": 36533,
        "name": "COSMOS 2251 DEB",
        "group": "cosmos-2251-debris",
        "lat": 49.46212928106186,
        "lon": -65.8107409777222,
        "alt_km": 753.6725349956496,
        "timestamp": "2025-12-02T15:49:07.591756+00:00",
        "meta_object_name": "COSMOS 2251 DEB",
        "meta_object_id": "1993-036BCT",
        "meta_epoch": "2025-12-01T04:26:58.600608",
        "meta_mean_motion": 14.49745776,
        "meta_eccentricity": 0.0049073,
        "meta_inclination": 74.0099,
        "meta_ra_of_asc_node": 136.5489,
        "meta_arg_of_pericenter": 287.7686,
        "meta_mean_anomaly": 71.8122,
        "meta_ephemeris_type": 0,
        "meta_classification_type": "U",
        "meta_norad_cat_id": 36533,
        "meta_element_set_no": 999,
        "meta_rev_at_epoch": 84317,
        "meta_bstar": 0.00049944,
        "meta_mean_motion_dot": 1.925e-05,
        "meta_mean_motion_ddot": 0,
        "tle_line1": "1 36533U 93036BCT 25335.18540047  .00001925  00000+0  49944-3 0  9997",
        "tle_line2": "2 36533  74.0099 136.5489 0049073 287.7686  71.8122 14.49745776843172"
      },
      "geometry": {
        "type": "Point",
        "coordinates": [
          -65.8107409777222,
          49.46212928106186
        ]
      }
    },
    {
      "type": "Feature",
      "properties": {
        "norad_id": 36539,
        "name": "COSMOS 2251 DEB",
        "group": "cosmos-2251-debris",
        "lat": -13.07957176714781,
        "lon": 70.59124481220314,
        "alt_km": 711.4150542055977,
        "timestamp": "2025-12-02T15:49:07.591766+00:00",
        "meta_object_name": "COSMOS 2251 DEB",
        "meta_object_id": "1993-036BCZ",
        "meta_epoch": "2025-12-02T07:39:14.571360",
        "meta_mean_motion": 14.59176839,
        "meta_eccentricity": 0.00278379,
        "meta_inclination": 74.024,
        "meta_ra_of_asc_node": 75.0561,
        "meta_arg_of_pericenter": 221.6601,
        "meta_mean_anomaly": 138.2445,
        "meta_ephemeris_type": 0,
        "meta_classification_type": "U",
        "meta_norad_cat_id": 36539,
        "meta_element_set_no": 999,
        "meta_rev_at_epoch": 83795,
        "meta_bstar": 0.0010776683,
        "meta_mean_motion_dot": 5.081e-05,
        "meta_mean_motion_ddot": 0,
        "tle_line1": "1 36539U 93036BCZ 25336.31891865  .00005081  00000+0  10777-2 0  9994",
        "tle_line2": "2 36539  74.0240  75.0561 0027837 221.6601 138.2445 14.59176839837956"
      },
      "geometry": {
        "type": "Point",
        "coordinates": [
          70.59124481220314,
          -13.07957176714781
        ]
      }
    },
    {
      "type": "Feature",
      "properties": {
        "norad_id": 36540,
        "name": "COSMOS 2251 DEB",
        "group": "cosmos-2251-debris",
        "lat": -20.582344892918456,
        "lon": -166.4624420391609,
        "alt_km": 699.4288505975346,
        "timestamp": "2025-12-02T15:49:07.591776+00:00",
        "meta_object_name": "COSMOS 2251 DEB",
        "meta_object_id": "1993-036BDA",
        "meta_epoch": "2025-12-01T21:48:23.136768",
        "meta_mean_motion": 14.58319628,
        "meta_eccentricity": 0.00154365,
        "meta_inclination": 74.0297,
        "meta_ra_of_asc_node": 201.1393,
        "meta_arg_of_pericenter": 271.8628,
        "meta_mean_anomaly": 88.0769,
        "meta_ephemeris_type": 0,
        "meta_classification_type": "U",
        "meta_norad_cat_id": 36540,
        "meta_element_set_no": 999,
        "meta_rev_at_epoch": 85852,
        "meta_bstar": 0.0011841745,
        "meta_mean_motion_dot": 5.462e-05,
        "meta_mean_motion_ddot": 0,
        "tle_line1": "1 36540U 93036BDA 25335.90860112  .00005462  00000+0  11842-2 0  9998",
        "tle_line2": "2 36540  74.0297 201.1393 0015436 271.8628  88.0769 14.58319628858524"
      },
      "geometry": {
        "type": "Point",
        "coordinates": [
          -166.4624420391609,
          -20.582344892918456
        ]
      }
    },
    {
      "type": "Feature",
      "properties": {
        "norad_id": 36550,
        "name": "COSMOS 2251 DEB",
        "group": "cosmos-2251-debris",
        "lat": -47.8276869434454,
        "lon": 49.38551780340486,
        "alt_km": 760.2808322614055,
        "timestamp": "2025-12-02T15:49:07.591786+00:00",
        "meta_object_name": "COSMOS 2251 DEB",
        "meta_object_id": "1993-036BDL",
        "meta_epoch": "2025-11-29T22:48:25.081920",
        "meta_mean_motion": 14.27140631,
        "meta_eccentricity": 0.00789359,
        "meta_inclination": 74.0446,
        "meta_ra_of_asc_node": 215.8731,
        "meta_arg_of_pericenter": 269.2877,
        "meta_mean_anomaly": 89.9226,
        "meta_ephemeris_type": 0,
        "meta_classification_type": "U",
        "meta_norad_cat_id": 36550,
        "meta_element_set_no": 999,
        "meta_rev_at_epoch": 84413,
        "meta_bstar": 0.00064991596,
        "meta_mean_motion_dot": 1.613e-05,
        "meta_mean_motion_ddot": 0,
        "tle_line1": "1 36550U 93036BDL 25333.95029030  .00001613  00000+0  64992-3 0  9997",
        "tle_line2": "2 36550  74.0446 215.8731 0078935 269.2877  89.9226 14.27140631844131"
      },
      "geometry": {
        "type": "Point",
        "coordinates": [
          49.38551780340486,
          -47.8276869434454
        ]
      }
    }
  ]
}